[{"OBJECT_NAME":"STARLINK-5691","OBJECT_ID":"2023-015AF","EPOCH":"2026-03-09T01:29:14.830080","MEAN_MOTION":15.02536361,"ECCENTRICITY":0.00012871,"INCLINATION":43.0047,"RA_OF_ASC_NODE":316.9029,"ARG_OF_PERICENTER":266.685,"MEAN_ANOMALY":93.3845,"EPHEMERIS_TYPE":0,"CLASSIFICATION_TYPE":"U","NORAD_CAT_ID":55478,"ELEMENT_SET_NO":999,"REV_AT_EPOCH":17080,"BSTAR":4.5239692e-5,"MEAN_MOTION_DOT":4.08e-6,"MEAN_MOTION_DDOT":0},{"OBJECT_NAME":"JIELONG-3 R\/B","OBJECT_ID":"2023-190C","EPOCH":"2026-03-09T21:26:26.113920","MEAN_MOTION":15.18151254,"ECCENTRICITY":0.02497151,"INCLINATION":86.5597,"RA_OF_ASC_NODE":295.7177,"ARG_OF_PERICENTER":271.8036,"MEAN_ANOMALY":85.4623,"EPHEMERIS_TYPE":0,"CLASSIFICATION_TYPE":"U","NORAD_CAT_ID":58507,"ELEMENT_SET_NO":999,"REV_AT_EPOCH":12333,"BSTAR":0.00045620602,"MEAN_MOTION_DOT":0.00021606,"MEAN_MOTION_DDOT":0}]
